CZ-2F DEB               
1 67719U 26024F   26061.43224304  .00151812  00000+0  37051-2 0  9996
2 67719  49.7916  56.8116 0319080 242.3827 114.4383 15.01302068  3153
CZ-2F DEB               
1 67720U 26024G   26061.47361302  .00147795  00000+0  37058-2 0  9994
2 67720  49.8314  57.1110 0329738 238.7718 118.0527 14.98647187  3479
STARLINK-36772          
1 67721U 26026A   26042.75317130 -.00000725  22934-5  00000+0 0  9999
2 67721  97.2800  95.5280 0003400 259.0800  81.2200 16.07750770    15
STARLINK-36796          
1 67722U 26026B   26061.58335648 -.01863826  00000+0 -14228-1 0  9990
2 67722  97.2840 115.8958 0001582  93.9192 180.2042 15.75305564  4172
STARLINK-36369          
1 67723U 26026C   26061.58335648 -.01864257  00000+0 -13982-1 0  9996
2 67723  97.2840 115.8992 0001517  85.5258 196.2482 15.75709342  4176
STARLINK-36752          
1 67724U 26026D   26061.58335648 -.01865045  00000+0 -13211-1 0  9998
2 67724  97.2841 115.9044 0001473  94.0352 200.2972 15.77000722  4176
STARLINK-36754          
1 67725U 26026E   26061.58335648 -.01858741  00000+0 -14748-1 0  9990
2 67725  97.2841 115.9024 0001466  91.7204 197.3832 15.74413147  4174
STARLINK-36755          
1 67726U 26026F   26061.58335648 -.01857122  00000+0 -16371-1 0  9997
2 67726  97.2839 115.8990 0001529  93.4439 187.3935 15.71963843  4175
STARLINK-36741          
1 67727U 26026G   26061.58335648 -.01861323  00000+0 -15641-1 0  9995
2 67727  97.2838 115.9043 0001501  94.0193 199.7160 15.73091133  4172
STARLINK-36757          
1 67728U 26026H   26061.58335648 -.01864808  00000+0 -12881-1 0  9990
2 67728  97.2846 115.9133 0001428  91.4286 230.1102 15.77563711  4170
STARLINK-36751          
1 67729U 26026J   26061.58742159 -.00778080  00000+0 -49139-2 0  9992
2 67729  97.2854 115.9233 0002154  49.4791 310.6663 15.78564031  3017
STARLINK-36747          
1 67730U 26026K   26061.58896150 -.00834593  00000+0 -53323-2 0  9997
2 67730  97.2851 115.9215 0001428 113.6847 246.4570 15.78459403  3014
