CCSDS_OMM_VERS = 2.0
CREATION_DATE  = 
ORIGINATOR     = 

OBJECT_NAME    = CZ-2F DEB
OBJECT_ID      = 2026-024F
CENTER_NAME    = EARTH
REF_FRAME      = TEME
TIME_SYSTEM    = UTC
MEAN_ELEMENT_THEORY = SGP/SGP4

EPOCH          = 2026-03-02T10:22:25.798656
MEAN_MOTION    = 15.01302068
ECCENTRICITY   = .03190807
INCLINATION    = 49.7916
RA_OF_ASC_NODE = 56.8116
ARG_OF_PERICENTER = 242.3827
MEAN_ANOMALY   = 114.4383

EPHEMERIS_TYPE = 0
CLASSIFICATION_TYPE = U
NORAD_CAT_ID   = 67719
ELEMENT_SET_NO = 999
REV_AT_EPOCH   = 315
BSTAR          = .37051267E-2
MEAN_MOTION_DOT = .151812E-2
MEAN_MOTION_DDOT = 0

CCSDS_OMM_VERS = 2.0
CREATION_DATE  = 
ORIGINATOR     = 

OBJECT_NAME    = CZ-2F DEB
OBJECT_ID      = 2026-024G
CENTER_NAME    = EARTH
REF_FRAME      = TEME
TIME_SYSTEM    = UTC
MEAN_ELEMENT_THEORY = SGP/SGP4

EPOCH          = 2026-03-02T11:22:00.164928
MEAN_MOTION    = 14.98647187
ECCENTRICITY   = .03297382
INCLINATION    = 49.8314
RA_OF_ASC_NODE = 57.1110
ARG_OF_PERICENTER = 238.7718
MEAN_ANOMALY   = 118.0527

EPHEMERIS_TYPE = 0
CLASSIFICATION_TYPE = U
NORAD_CAT_ID   = 67720
ELEMENT_SET_NO = 999
REV_AT_EPOCH   = 347
BSTAR          = .37058245E-2
MEAN_MOTION_DOT = .147795E-2
MEAN_MOTION_DDOT = 0

CCSDS_OMM_VERS = 2.0
CREATION_DATE  = 
ORIGINATOR     = 

OBJECT_NAME    = STARLINK-36772
OBJECT_ID      = 2026-026A
CENTER_NAME    = EARTH
REF_FRAME      = TEME
TIME_SYSTEM    = UTC
MEAN_ELEMENT_THEORY = SGP/SGP4

EPOCH          = 2026-02-11T18:04:34.000320
MEAN_MOTION    = 16.07750770
ECCENTRICITY   = .00034
INCLINATION    = 97.2800
RA_OF_ASC_NODE = 95.5280
ARG_OF_PERICENTER = 259.0800
MEAN_ANOMALY   = 81.2200

EPHEMERIS_TYPE = 0
CLASSIFICATION_TYPE = U
NORAD_CAT_ID   = 67721
ELEMENT_SET_NO = 999
REV_AT_EPOCH   = 1
BSTAR          = 0
MEAN_MOTION_DOT = -.725E-5
MEAN_MOTION_DDOT = .2293429E-5

CCSDS_OMM_VERS = 2.0
CREATION_DATE  = 
ORIGINATOR     = 

OBJECT_NAME    = STARLINK-36796
OBJECT_ID      = 2026-026B
CENTER_NAME    = EARTH
REF_FRAME      = TEME
TIME_SYSTEM    = UTC
MEAN_ELEMENT_THEORY = SGP/SGP4

EPOCH          = 2026-03-02T14:00:01.999872
MEAN_MOTION    = 15.75305564
ECCENTRICITY   = .00015822
INCLINATION    = 97.2840
RA_OF_ASC_NODE = 115.8958
ARG_OF_PERICENTER = 93.9192
MEAN_ANOMALY   = 180.2042

EPHEMERIS_TYPE = 0
CLASSIFICATION_TYPE = U
NORAD_CAT_ID   = 67722
ELEMENT_SET_NO = 999
REV_AT_EPOCH   = 417
BSTAR          = -.14228036E-1
MEAN_MOTION_DOT = -.1863826E-1
MEAN_MOTION_DDOT = 0

CCSDS_OMM_VERS = 2.0
CREATION_DATE  = 
ORIGINATOR     = 

OBJECT_NAME    = STARLINK-36369
OBJECT_ID      = 2026-026C
CENTER_NAME    = EARTH
REF_FRAME      = TEME
TIME_SYSTEM    = UTC
MEAN_ELEMENT_THEORY = SGP/SGP4

EPOCH          = 2026-03-02T14:00:01.999872
MEAN_MOTION    = 15.75709342
ECCENTRICITY   = .00015171
INCLINATION    = 97.2840
RA_OF_ASC_NODE = 115.8992
ARG_OF_PERICENTER = 85.5258
MEAN_ANOMALY   = 196.2482

EPHEMERIS_TYPE = 0
CLASSIFICATION_TYPE = U
NORAD_CAT_ID   = 67723
ELEMENT_SET_NO = 999
REV_AT_EPOCH   = 417
BSTAR          = -.13981925E-1
MEAN_MOTION_DOT = -.1864257E-1
MEAN_MOTION_DDOT = 0

CCSDS_OMM_VERS = 2.0
CREATION_DATE  = 
ORIGINATOR     = 

OBJECT_NAME    = STARLINK-36752
OBJECT_ID      = 2026-026D
CENTER_NAME    = EARTH
REF_FRAME      = TEME
TIME_SYSTEM    = UTC
MEAN_ELEMENT_THEORY = SGP/SGP4

EPOCH          = 2026-03-02T14:00:01.999872
MEAN_MOTION    = 15.77000722
ECCENTRICITY   = .00014735
INCLINATION    = 97.2841
RA_OF_ASC_NODE = 115.9044
ARG_OF_PERICENTER = 94.0352
MEAN_ANOMALY   = 200.2972

EPHEMERIS_TYPE = 0
CLASSIFICATION_TYPE = U
NORAD_CAT_ID   = 67724
ELEMENT_SET_NO = 999
REV_AT_EPOCH   = 417
BSTAR          = -.13211005E-1
MEAN_MOTION_DOT = -.1865045E-1
MEAN_MOTION_DDOT = 0

CCSDS_OMM_VERS = 2.0
CREATION_DATE  = 
ORIGINATOR     = 

OBJECT_NAME    = STARLINK-36754
OBJECT_ID      = 2026-026E
CENTER_NAME    = EARTH
REF_FRAME      = TEME
TIME_SYSTEM    = UTC
MEAN_ELEMENT_THEORY = SGP/SGP4

EPOCH          = 2026-03-02T14:00:01.999872
MEAN_MOTION    = 15.74413147
ECCENTRICITY   = .00014669
INCLINATION    = 97.2841
RA_OF_ASC_NODE = 115.9024
ARG_OF_PERICENTER = 91.7204
MEAN_ANOMALY   = 197.3832

EPHEMERIS_TYPE = 0
CLASSIFICATION_TYPE = U
NORAD_CAT_ID   = 67725
ELEMENT_SET_NO = 999
REV_AT_EPOCH   = 417
BSTAR          = -.14748394E-1
MEAN_MOTION_DOT = -.1858741E-1
MEAN_MOTION_DDOT = 0

CCSDS_OMM_VERS = 2.0
CREATION_DATE  = 
ORIGINATOR     = 

OBJECT_NAME    = STARLINK-36755
OBJECT_ID      = 2026-026F
CENTER_NAME    = EARTH
REF_FRAME      = TEME
TIME_SYSTEM    = UTC
MEAN_ELEMENT_THEORY = SGP/SGP4

EPOCH          = 2026-03-02T14:00:01.999872
MEAN_MOTION    = 15.71963843
ECCENTRICITY   = .00015297
INCLINATION    = 97.2839
RA_OF_ASC_NODE = 115.8990
ARG_OF_PERICENTER = 93.4439
MEAN_ANOMALY   = 187.3935

EPHEMERIS_TYPE = 0
CLASSIFICATION_TYPE = U
NORAD_CAT_ID   = 67726
ELEMENT_SET_NO = 999
REV_AT_EPOCH   = 417
BSTAR          = -.16370566E-1
MEAN_MOTION_DOT = -.1857122E-1
MEAN_MOTION_DDOT = 0

CCSDS_OMM_VERS = 2.0
CREATION_DATE  = 
ORIGINATOR     = 

OBJECT_NAME    = STARLINK-36741
OBJECT_ID      = 2026-026G
CENTER_NAME    = EARTH
REF_FRAME      = TEME
TIME_SYSTEM    = UTC
MEAN_ELEMENT_THEORY = SGP/SGP4

EPOCH          = 2026-03-02T14:00:01.999872
MEAN_MOTION    = 15.73091133
ECCENTRICITY   = .0001501
INCLINATION    = 97.2838
RA_OF_ASC_NODE = 115.9043
ARG_OF_PERICENTER = 94.0193
MEAN_ANOMALY   = 199.7160

EPHEMERIS_TYPE = 0
CLASSIFICATION_TYPE = U
NORAD_CAT_ID   = 67727
ELEMENT_SET_NO = 999
REV_AT_EPOCH   = 417
BSTAR          = -.15640851E-1
MEAN_MOTION_DOT = -.1861323E-1
MEAN_MOTION_DDOT = 0

CCSDS_OMM_VERS = 2.0
CREATION_DATE  = 
ORIGINATOR     = 

OBJECT_NAME    = STARLINK-36757
OBJECT_ID      = 2026-026H
CENTER_NAME    = EARTH
REF_FRAME      = TEME
TIME_SYSTEM    = UTC
MEAN_ELEMENT_THEORY = SGP/SGP4

EPOCH          = 2026-03-02T14:00:01.999872
MEAN_MOTION    = 15.77563711
ECCENTRICITY   = .00014288
INCLINATION    = 97.2846
RA_OF_ASC_NODE = 115.9133
ARG_OF_PERICENTER = 91.4286
MEAN_ANOMALY   = 230.1102

EPHEMERIS_TYPE = 0
CLASSIFICATION_TYPE = U
NORAD_CAT_ID   = 67728
ELEMENT_SET_NO = 999
REV_AT_EPOCH   = 417
BSTAR          = -.12881093E-1
MEAN_MOTION_DOT = -.1864808E-1
MEAN_MOTION_DDOT = 0

CCSDS_OMM_VERS = 2.0
CREATION_DATE  = 
ORIGINATOR     = 

OBJECT_NAME    = STARLINK-36751
OBJECT_ID      = 2026-026J
CENTER_NAME    = EARTH
REF_FRAME      = TEME
TIME_SYSTEM    = UTC
MEAN_ELEMENT_THEORY = SGP/SGP4

EPOCH          = 2026-03-02T14:05:53.225376
MEAN_MOTION    = 15.78564031
ECCENTRICITY   = .00021543
INCLINATION    = 97.2854
RA_OF_ASC_NODE = 115.9233
ARG_OF_PERICENTER = 49.4791
MEAN_ANOMALY   = 310.6663

EPHEMERIS_TYPE = 0
CLASSIFICATION_TYPE = U
NORAD_CAT_ID   = 67729
ELEMENT_SET_NO = 999
REV_AT_EPOCH   = 301
BSTAR          = -.49138505E-2
MEAN_MOTION_DOT = -.77808E-2
MEAN_MOTION_DDOT = 0

CCSDS_OMM_VERS = 2.0
CREATION_DATE  = 
ORIGINATOR     = 

OBJECT_NAME    = STARLINK-36747
OBJECT_ID      = 2026-026K
CENTER_NAME    = EARTH
REF_FRAME      = TEME
TIME_SYSTEM    = UTC
MEAN_ELEMENT_THEORY = SGP/SGP4

EPOCH          = 2026-03-02T14:08:06.273600
MEAN_MOTION    = 15.78459403
ECCENTRICITY   = .00014287
INCLINATION    = 97.2851
RA_OF_ASC_NODE = 115.9215
ARG_OF_PERICENTER = 113.6847
MEAN_ANOMALY   = 246.4570

EPHEMERIS_TYPE = 0
CLASSIFICATION_TYPE = U
NORAD_CAT_ID   = 67730
ELEMENT_SET_NO = 999
REV_AT_EPOCH   = 301
BSTAR          = -.5332275E-2
MEAN_MOTION_DOT = -.834593E-2
MEAN_MOTION_DDOT = 0

